NORAD_CAT_ID,OBJECT_NAME,OBJECT_TYPE,EPOCH,MEAN_MOTION,ECCENTRICITY,INCLINATION,RA_OF_ASC_NODE,ARG_OF_PERICENTER,MEAN_ANOMALY,BSTAR,MEAN_MOTION_DOT,MEAN_MOTION_DDOT,TLE_LINE0,TLE_LINE1,TLE_LINE2,SEMIMAJOR_AXIS,PERIOD,APOGEE,PERIGEE,DECAYED
56777.0,STARLINK-5582,PAYLOAD,2023-06-13 14:00:01,15.77470783,0.0003446,70.0034,15.9517,268.4522,189.0097,-0.0063235,-0.00942524,0.0,0 STARLINK-5582,1 56777U 23078L   23164.58334491 -.00942524  00000-0 -63235-2 0  9994,2 56777  70.0034  15.9517 0003446 268.4522 189.0097 15.77470783  1309,6715.746,91.285,339.926,335.297,0.0
56777.0,STARLINK-5582,PAYLOAD,2023-06-13 18:00:00,15.77117873,0.0003565,70.0032,15.478,268.9295,54.6239,-0.0062599,-0.00920883,0.0,0 STARLINK-5582,1 56777U 23078L   23164.75001157 -.00920883  00000-0 -62599-2 0  9999,2 56777  70.0032  15.4780 0003565 268.9295  54.6239 15.77117873  2425,6716.748,91.306,341.008,336.219,0.0
56777.0,STARLINK-5582,PAYLOAD,2023-06-13 22:00:00,15.76762575,0.0003292,70.003,15.0046,273.3567,276.0793,-0.0059026,-0.008607,0.0,0 STARLINK-5582,1 56777U 23078L   23164.91667824 -.00860700  00000-0 -59026-2 0  9998,2 56777  70.0030  15.0046 0003292 273.3567 276.0793 15.76762575  1308,6717.757,91.326,341.834,337.411,0.0
56777.0,STARLINK-5582,PAYLOAD,2023-06-14 14:00:01,15.75514205,0.0003469,70.003,13.113,267.7963,103.1767,-0.0068768,-0.00940031,0.0,0 STARLINK-5582,1 56777U 23078L   23165.58334491 -.00940031  00000-0 -68768-2 0  9992,2 56777  70.0030  13.1130 0003469 267.7963 103.1767 15.75514205  1309,6721.305,91.399,345.502,340.839,0.0
56777.0,STARLINK-5582,PAYLOAD,2023-06-14 20:00:01,15.74972527,0.0003482,70.003,12.4045,271.4795,76.7965,-0.0065077,-0.00875478,0.0,0 STARLINK-5582,1 56777U 23078L   23165.83334491 -.00875478  00000-0 -65077-2 0  9992,2 56777  70.0030  12.4045 0003482 271.4795  76.7965 15.74972527  2597,6722.846,91.43,347.052,342.37,0.0
56777.0,STARLINK-5582,PAYLOAD,2023-06-14 22:00:00,15.74812616,0.0003383,70.0031,12.1685,274.7836,185.8153,-0.0065102,-0.00870219,0.0,0 STARLINK-5582,1 56777U 23078L   23165.91667824 -.00870219  00000-0 -65102-2 0  9997,2 56777  70.0031  12.1685 0003383 274.7836 185.8153 15.74812616  1308,6723.301,91.439,347.441,342.892,0.0
56777.0,STARLINK-5582,PAYLOAD,2023-06-15 12:00:02,15.73691727,0.0003353,70.0027,10.5182,266.5553,259.0252,-0.0070163,-0.00891062,0.0,0 STARLINK-5582,1 56777U 23078L   23166.50002315 -.00891062  00000-0 -70163-2 0  9993,2 56777  70.0027  10.5182 0003353 266.5553 259.0252 15.73691727  2693,6726.494,91.505,350.614,346.103,0.0
56777.0,STARLINK-5582,PAYLOAD,2023-06-15 14:00:01,15.7355876,0.0003506,70.0029,10.2826,265.4054,12.0385,-0.0074889,-0.009401,0.0,0 STARLINK-5582,1 56777U 23078L   23166.58334491 -.00940100  00000-0 -74889-2 0  9991,2 56777  70.0029  10.2826 0003506 265.4054  12.0385 15.73558760  1301,6726.873,91.512,351.096,346.379,0.0
56777.0,STARLINK-5582,PAYLOAD,2023-06-15 20:00:01,15.73017554,0.0003551,70.0024,9.5763,270.7098,342.2774,-0.0071161,-0.00879221,0.0,0 STARLINK-5582,1 56777U 23078L   23166.83334491 -.00879221  00000-0 -71161-2 0  9994,2 56777  70.0024   9.5763 0003551 270.7098 342.2774 15.73017554  1305,6728.415,91.544,352.67,347.891,0.0
56777.0,STARLINK-5582,PAYLOAD,2023-06-16 01:02:00,15.73031857,0.0003288,70.0025,8.9844,267.7497,92.3324,-0.0030897,-0.00403964,0.0,0 STARLINK-5582,1 56777U 23078L   23167.04305994 -.00403964  00000-0 -30897-2 0  9992,2 56777  70.0025   8.9844 0003288 267.7497  92.3324 15.73031857  2784,6728.375,91.543,352.452,348.027,0.0
56777.0,STARLINK-5582,PAYLOAD,2023-06-16 12:00:00,15.71738504,0.0003694,70.0019,7.6949,268.176,157.3566,-0.0077133,-0.00900148,0.0,0 STARLINK-5582,1 56777U 23078L   23167.50001157 -.00900148  00000-0 -77133-2 0  9997,2 56777  70.0019   7.6949 0003694 268.1760 157.3566 15.71738504  2857,6732.065,91.618,356.417,351.443,0.0
56777.0,STARLINK-5582,PAYLOAD,2023-06-16 14:00:01,15.71594305,0.0003581,70.0022,7.46,266.4624,270.416,-0.0080591,-0.00931168,0.0,0 STARLINK-5582,1 56777U 23078L   23167.58334491 -.00931168  00000-0 -80591-2 0  9993,2 56777  70.0022   7.4600 0003581 266.4624 270.4160 15.71594305  1303,6732.477,91.627,356.753,351.931,0.0
56777.0,STARLINK-5582,PAYLOAD,2023-06-16 22:00:00,15.70889587,0.000366,70.0021,6.5208,271.9884,349.8216,-0.0075525,-0.00854977,0.0,0 STARLINK-5582,1 56777U 23078L   23167.91667824 -.00854977  00000-0 -75525-2 0  9992,2 56777  70.0021   6.5208 0003660 271.9884 349.8216 15.70889587  1304,6734.49,91.668,358.82,353.891,0.0
56777.0,STARLINK-5582,PAYLOAD,2023-06-17 09:07:06,15.70364553,0.000346,70.002,5.2176,275.5618,84.5183,-0.0039234,-0.00455575,0.0,0 STARLINK-5582,1 56777U 23078L   23168.37993297 -.00455575  00000-0 -39234-2 0  9997,2 56777  70.0020   5.2176 0003460 275.5618  84.5183 15.70364553  2999,6735.991,91.698,360.187,355.526,0.0
56777.0,STARLINK-5582,PAYLOAD,2023-06-17 12:10:35,15.70201216,0.0003595,70.002,4.8592,271.7694,88.309,-0.0033209,-0.00386176,0.0,0 STARLINK-5582,1 56777U 23078L   23168.50735805 -.00386176  00000-0 -33209-2 0  9997,2 56777  70.0020   4.8592 0003595 271.7694  88.3090 15.70201216  2756,6736.458,91.708,360.745,355.902,0.0
56777.0,STARLINK-5582,PAYLOAD,2023-06-17 18:17:35,15.70045022,0.0003726,70.0019,4.1427,274.228,85.849,-0.0015039,-0.00178173,0.0,0 STARLINK-5582,1 56777U 23078L   23168.76221889 -.00178173  00000-0 -15039-2 0  9994,2 56777  70.0019   4.1427 0003726 274.2280  85.8490 15.70045022  3050,6736.905,91.717,361.28,356.26,0.0
56777.0,STARLINK-5582,PAYLOAD,2023-06-17 21:20:57,15.70785936,0.0003152,70.0019,3.784,293.3969,66.6896,0.0050343,0.00680698,0.0,0 STARLINK-5582,1 56777U 23078L   23168.88955265  .00680698  00000-0  50343-2 0  9994,2 56777  70.0019   3.7840 0003152 293.3969  66.6896 15.70785936  2818,6734.787,91.674,358.774,354.529,0.0
56777.0,STARLINK-5582,PAYLOAD,2023-06-18 12:00:00,15.69925467,0.000359,70.0007,2.0683,266.6458,301.8828,4.3764e-05,5.053e-05,0.0,0 STARLINK-5582,1 56777U 23078L   23169.50001157  .00005053  00000-0  43764-4 0  9993,2 56777  70.0007   2.0683 0003590 266.6458 301.8828 15.69925467  3165,6737.247,91.724,361.531,356.694,0.0
56777.0,STARLINK-5582,PAYLOAD,2023-06-18 12:38:38,15.69933606,0.0003658,70.0012,1.9936,271.1786,88.8991,0.00013012,0.00015469,0.0,0 STARLINK-5582,1 56777U 23078L   23169.52683292  .00015469  00000-0  13012-3 0  9995,2 56777  70.0012   1.9936 0003658 271.1786  88.8991 15.69933606  2919,6737.224,91.724,361.553,356.624,0.0
56777.0,STARLINK-5582,PAYLOAD,2023-06-18 22:00:00,15.69892148,0.0003514,70.0008,0.8965,275.2287,127.4892,0.00059579,0.00071949,0.0,0 STARLINK-5582,1 56777U 23078L   23169.91667824  .00071949  00000-0  59579-3 0  9994,2 56777  70.0008   0.8965 0003514 275.2287 127.4892 15.69892148  1303,6737.343,91.726,361.575,356.84,0.0
56777.0,STARLINK-5582,PAYLOAD,2023-06-19 08:31:24,15.69959146,0.0003575,70.0007,359.6641,272.1233,87.9553,0.00032625,0.00039258,0.0,0 STARLINK-5582,1 56777U 23078L   23170.35514702  .00039258  00000-0  32625-3 0  9990,2 56777  70.0007 359.6641 0003575 272.1233  87.9553 15.69959146  3300,6737.151,91.722,361.424,356.607,0.0
56777.0,STARLINK-5582,PAYLOAD,2023-06-19 13:06:40,15.69938258,0.0003604,70.0008,359.1265,271.783,88.2953,0.00014437,0.00017193,0.0,0 STARLINK-5582,1 56777U 23078L   23170.54629901  .00017193  00000-0  14437-3 0  9994,2 56777  70.0008 359.1265 0003604 271.7830  88.2953 15.69938258  3072,6737.211,91.723,361.504,356.648,0.0
56777.0,STARLINK-5582,PAYLOAD,2023-06-19 20:00:01,15.69878145,0.0003629,70.0007,358.3194,276.1876,265.7216,0.0004298,0.0005169,0.0,0 STARLINK-5582,1 56777U 23078L   23170.83334491  .00051690  00000-0  42980-3 0  9997,2 56777  70.0007 358.3194 0003629 276.1876 265.7216 15.69878145  3374,6737.383,91.727,361.693,356.803,0.0
56777.0,STARLINK-5582,PAYLOAD,2023-06-19 22:00:00,15.69871745,0.0003626,70.0008,358.0851,277.381,15.3553,0.00069841,0.00084435,0.0,0 STARLINK-5582,1 56777U 23078L   23170.91667824  .00084435  00000-0  69841-3 0  9993,2 56777  70.0008 358.0851 0003626 277.3810  15.3553 15.69871745  1303,6737.401,91.727,361.709,356.823,0.0
56777.0,STARLINK-5582,PAYLOAD,2023-06-20 12:00:00,15.69943234,0.0003682,70.0005,356.4448,269.6421,78.9121,-0.00028029,-0.00033809,0.0,0 STARLINK-5582,1 56777U 23078L   23171.50001157 -.00033809  00000-0 -28029-3 0  9994,2 56777  70.0005 356.4448 0003682 269.6421  78.9121 15.69943234  3488,6737.196,91.723,361.542,356.581,0.0
56777.0,STARLINK-5582,PAYLOAD,2023-06-20 14:00:01,15.69959044,0.0003719,70.0006,356.2103,270.5856,188.8016,-0.00066133,-0.00079109,0.0,0 STARLINK-5582,1 56777U 23078L   23171.58334491 -.00079109  00000-0 -66133-3 0  9993,2 56777  70.0006 356.2103 0003719 270.5856 188.8016 15.69959044  1308,6737.151,91.722,361.522,356.511,0.0
56777.0,STARLINK-5582,PAYLOAD,2023-06-20 22:00:00,15.69882686,0.0003721,70.0006,355.273,277.209,265.5307,0.00061599,0.00074391,0.0,0 STARLINK-5582,1 56777U 23078L   23171.91667824  .00074391  00000-0  61599-3 0  9996,2 56777  70.0006 355.2730 0003721 277.2090 265.5307 15.69882686  1303,6737.37,91.727,361.742,356.728,0.0
56777.0,STARLINK-5582,PAYLOAD,2023-06-21 04:00:00,15.69950456,0.0003676,70.0004,354.5701,274.5892,240.6315,-0.0005989,-0.00071698,0.0,0 STARLINK-5582,1 56777U 23078L   23172.16667824 -.00071698  00000-0 -59890-3 0  9994,2 56777  70.0004 354.5701 0003676 274.5892 240.6315 15.69950456  3586,6737.176,91.723,361.517,356.564,0.0
56777.0,STARLINK-5582,PAYLOAD,2023-06-21 12:00:02,15.69943543,0.0003755,70.0009,353.6331,269.6231,328.9882,-7.0338e-05,-8.669e-05,0.0,0 STARLINK-5582,1 56777U 23078L   23172.50002315 -.00008669  00000-0 -70338-4 0  9999,2 56777  70.0009 353.6331 0003755 269.6231 328.9882 15.69943543  3645,6737.196,91.723,361.59,356.531,0.0
56777.0,STARLINK-5582,PAYLOAD,2023-06-21 14:00:01,15.69978718,0.0003813,70.001,353.3989,271.5269,77.8474,-0.00074138,-0.00088633,0.0,0 STARLINK-5582,1 56777U 23078L   23172.58334491 -.00088633  00000-0 -74138-3 0  9990,2 56777  70.0010 353.3989 0003813 271.5269  77.8474 15.69978718  1301,6737.095,91.721,361.529,356.391,0.0
